QIANFAN-49              
1 62250U 24232P   25214.56030883  .00000039  00000+0  41121-4 0  9999
2 62250  88.9931  54.5969 0013015 210.5949 149.4445 13.50961220 49994
QIANFAN-50              
1 62251U 24232Q   25214.58520739  .00000055  00000+0  66632-4 0  9998
2 62251  88.9937  54.5953 0014622 212.7433 147.2813 13.50954248 50024
QIANFAN-51              
1 62252U 24232R   25214.86497579  .00000039  00000+0  42134-4 0  9998
2 62252  88.9931  54.5689 0012057 214.6542 145.3824 13.50958256 50054
QIANFAN-52              
1 62253U 24232S   25214.52343383  .00000048  00000+0  55648-4 0  9999
2 62253  88.9926  54.4823 0014238 208.3276 151.7103 13.50959419 50092
QIANFAN-53              
1 62254U 24232T   25214.87322509  .00000049  00000+0  57101-4 0  9992
2 62254  88.9934  54.5413 0013118 207.9022 152.1427 13.50953085 50107
QIANFAN-54              
1 62255U 24232U   25214.54395017  .00000043  00000+0  48832-4 0  9996
2 62255  88.9925  54.2647 0000367 190.6096 169.5047 13.50951980 81561
QIANFAN-55              
1 62785U 25016A   25214.79219796  .00000133  00000+0  18774-3 0  9992
2 62785  88.9849 116.8197 0018514  16.0457 344.1276 13.50963606 29378
QIANFAN-56              
1 62786U 25016B   25214.58646465  .00000114  00000+0  15716-3 0  9999
2 62786  88.9822 116.7132 0017270  19.3335 340.8468 13.50955315 29393
